[{"OBJECT_NAME":"STARLINK-36547","OBJECT_ID":"2026-012AD","EPOCH":"2026-03-09T02:16:23.136672","MEAN_MOTION":15.27595629,"ECCENTRICITY":0.00026118,"INCLINATION":43.0035,"RA_OF_ASC_NODE":317.5088,"ARG_OF_PERICENTER":260.6726,"MEAN_ANOMALY":99.3831,"EPHEMERIS_TYPE":0,"CLASSIFICATION_TYPE":"U","NORAD_CAT_ID":67520,"ELEMENT_SET_NO":999,"REV_AT_EPOCH":767,"BSTAR":0.0012758028,"MEAN_MOTION_DOT":0.0003503,"MEAN_MOTION_DDOT":0},{"OBJECT_NAME":"FENGYUN 1C DEB","OBJECT_ID":"1999-025ETT","EPOCH":"2026-03-07T08:30:03.670560","MEAN_MOTION":15.28888299,"ECCENTRICITY":0.00158464,"INCLINATION":99.1103,"RA_OF_ASC_NODE":112.0072,"ARG_OF_PERICENTER":201.0032,"MEAN_ANOMALY":159.0553,"EPHEMERIS_TYPE":0,"CLASSIFICATION_TYPE":"U","NORAD_CAT_ID":38726,"ELEMENT_SET_NO":999,"REV_AT_EPOCH":71135,"BSTAR":0.013792546,"MEAN_MOTION_DOT":0.00409659,"MEAN_MOTION_DDOT":0}]
